StoreName,StoreType,StoreOpeningDate,Address,City,State,Country,Region,Manager Name
The Classy Quest,Outlet Stores,2011-07-29,011 Eugene Mill North Nicholas  CO 96516,East Amanda,Wyoming,Brazil,East,Francisco
The Rustic Shoppe,Exclusive,1982-03-26,504 Brandon Walks East Dennis  DE 33417,West Eric,North Carolina,Madagascar,East,Charles
The Vintage Cabinet,Outlet Stores,1996-04-26,435 Francis Curve Pamelafort  SC 71658,Randyville,Virginia,Congo,East,William
The Artisan Avenue,MBO,2000-01-16,30238 Miranda Haven Apt. 503 New Bradleymouth  PA 65254,Torresville,North Dakota,Japan,East,David
The Chic Merchant,MBO,2012-02-04,531 Caitlin Views Suite 899 North David  TX 26933,Lopezshire,Minnesota,Hong Kong,East,Alexandra
The Classy Shop,SMB,1972-06-04,1104 Zachary Court Wilsonhaven  GU 14245,Williamstown,Nebraska,Saint Barthelemy,East,Jeremy
The Golden Enclave,SMB,2001-01-30,0931 Kevin Crossing West Josephton  NC 46302,Sarahview,New Jersey,Angola,North,Crystal
The Radiant Vault,SMB,1978-12-05,14505 Whitehead Square Suite 745 Johnsonshire  NE 73007,Andreaburgh,Oklahoma,Japan,South,John
The Enchanted Hub,SMB,1989-11-04,910 Holden Brooks Torreschester  TN 42969,Lake Maria,Nebraska,Saint Kitts and Nevis,West,Makayla
The Vintage Merchant,SMB,2021-07-11,991 Lynch Gardens Apt. 296 Aguilarshire  FL 68733,Lake Dannyland,Oklahoma,South Georgia and the South Sandwich Islands,West,Michele
The Elegant Closet,Exclusive,1982-11-28,110 Wilson Place West Jason  CA 55793,East Brittany,Nebraska,Uganda,West,Samantha
The Whimsy Cabinet,MBO,1984-11-12,371 Lucas Tunnel Apt. 178 Bergborough  ND 83226,Stephanieland,Hawaii,South Africa,South,Christopher
The Luxe Oasis,MBO,2001-05-08,3362 Mark Oval Apt. 231 Port Leah  WA 31421,South Robertland,Idaho,Saint Pierre and Miquelon,North,Melissa
The Urban Shoppe,Exclusive,1970-07-07,60186 Pollard Light Port Christophermouth  NY 28778,Garrisonstad,Alaska,Palestinian Territory,West,Caitlin
The Elegant Deals,Exclusive,2016-10-17,667 Ann Via Apt. 177 Williamport  IL 81875,East Timothyside,Texas,Mali,North,Matthew
The Cozy Vault,Outlet Stores,1993-10-07,880 Powell Land Apt. 350 Guerreroborough  CT 22971,Jenniferfort,Mississippi,Bouvet Island (Bouvetoya),East,Deborah
The Purely Vault,SMB,1991-12-16,9400 Mcknight Summit Robertsonport  MP 01581,West Paige,Kansas,Congo,South,William
The Purely Hub,MBO,2000-07-30,71333 Ashley Parks West Paul  MI 72085,Jessicaberg,Colorado,Libyan Arab Jamahiriya,South,Anna
The Happy Nook,MBO,2024-08-21,609 Garcia Rapids Apt. 557 Markport  NJ 62815,North Seanshire,Nebraska,Gabon,North,Cathy
The Shimmer Boutique,Outlet Stores,2008-04-16,003 Curtis Valleys Watersburgh  KY 34900,Alexanderville,Alabama,Guernsey,West,Isabel
The Whimsy Deals,Outlet Stores,2023-11-05,081 Angela Meadow Suite 456 Zacharybury  WV 34343,Rebeccastad,Louisiana,United States Minor Outlying Islands,East,Sheila
The Majestic Marvels,Outlet Stores,2021-12-28,45614 Sandra Land Suite 456 Rickton  WI 01087,Colefort,Kentucky,Finland,South,Timothy
The Serene Marvels,Exclusive,1975-06-30,86570 Melton Fort Apt. 771 North Christopher  IN 64595,Port Kevin,Arizona,Austria,West,James
The Elegant Creations,MBO,1995-05-11,099 Mason Grove Suite 128 North Katherine  CT 90780,Tanyafurt,Pennsylvania,Guinea-Bissau,West,Sally
The Trendy Reflections,SMB,2010-08-07,5976 Lindsey Stravenue Angelabury  NE 26269,Johnberg,Nebraska,Antigua and Barbuda,West,Michelle
The Stylish Boutique,SMB,1999-10-21,44079 Brooke Parks Claytonport  ID 48392,Jamesborough,Vermont,Papua New Guinea,East,Brent
The Trendy Haven,SMB,1997-03-25,68843 Kelly Key Suite 457 West Toddberg  VT 27484,Port Yolanda,Washington,Uruguay,South,Dana
The Timeless Enclave,MBO,1971-09-09,USNV Zimmerman FPO AP 50226,Elizabethfort,Texas,Switzerland,East,Robert
The Luxe Haven,Outlet Stores,1981-07-02,898 April Rest Solomonville  FM 53440,Joannashire,Nevada,Bermuda,South,Carolyn
The Modern Marvels,MBO,2002-12-21,3777 Ramos Plains East Cynthiaton  MD 70458,Adamstown,West Virginia,Pakistan,West,Michael
The Shimmer Deals,MBO,1994-12-23,63398 Jason Courts Erinfurt  CT 48711,Parkerbury,Florida,Cook Islands,West,Felicia
The Radiant Emporium,SMB,1979-05-10,454 Kristie Plaza Amymouth  ME 16854,Port Staceyberg,Arizona,Guinea,West,Ryan
The Chic Hub,SMB,2014-12-26,64582 Baker Throughway East Johnborough  SD 54493,Port Sean,Michigan,Bhutan,West,Lisa
The Chic Emporium,MBO,1992-02-26,Unit 6080 Box 4628 DPO AA 49384,Allenville,Tennessee,Trinidad and Tobago,North,Alex
The Elegant Essentials,Exclusive,1981-07-22,815 Catherine Drives West Rebeccaborough  KY 03005,Ashleyfurt,North Dakota,Ghana,East,Tina
The Trendy Sanctuary,Outlet Stores,1977-08-14,82698 Nicole Plains Andrewmouth  MH 60975,Phillipsburgh,North Dakota,Montserrat,East,Charles
The Cozy Merchant,Exclusive,2009-12-31,888 Pope Groves Apt. 166 Port John  NM 83620,Matthewburgh,Vermont,Iran,North,Rachel
The Polished Marvels,Exclusive,2020-03-20,72286 Allen Circle Port Danielle  NJ 20147,Port Darren,Connecticut,Georgia,West,Robert
The Happy Shop,Outlet Stores,2014-12-20,USNV Thomas FPO AE 65602,Robertsview,Michigan,Guatemala,East,Ryan
The Shimmer Nook,SMB,1989-01-14,2318 Richard Lakes New Bobby  WY 69057,Lake Donald,New Jersey,Fiji,East,Jeff
The Polished Quest,SMB,2020-08-11,193 Best Walk Tiffanymouth  NV 16600,West Jessicamouth,Maine,Switzerland,North,Timothy
The Chic Closet,SMB,2022-09-17,7078 Frank Falls Suite 081 Andersonhaven  MS 26761,Samanthaton,Michigan,Brazil,North,Melissa
The Serene Closet,Exclusive,1972-07-07,8827 Morgan Springs Suite 470 South Kellyhaven  AZ 71889,Stewartport,Maryland,Christmas Island,South,Rebecca
The Enchanted Haven,SMB,2009-11-28,028 White Shores Suite 844 Lake Aaronfurt  SD 46687,Jamesstad,New Jersey,Tanzania,North,Wendy
The Unique Marvels,Outlet Stores,2012-07-26,142 Catherine Viaduct Suite 563 Karenville  MO 68845,South Richard,Indiana,Saint Lucia,West,Bonnie
The Dapper Sanctuary,SMB,1977-12-10,USNS Travis FPO AE 29763,West Christopherfort,Vermont,Greenland,West,Jessica
The Artisan Marvels,Outlet Stores,2017-02-26,0415 Michelle Avenue Suite 554 Lake Michaelview  KY 87669,Lake Monica,Michigan,Sierra Leone,South,Cindy
The Blissful Haven,MBO,2014-10-11,94096 Cooper Garden Apt. 870 South Stephanieton  WA 41286,Lake Laura,Indiana,Peru,South,Tyler
The Eclectic Emporium,Outlet Stores,1987-11-13,133 Robyn Shores East Faithhaven  KS 06817,Richardport,Delaware,Slovakia (Slovak Republic),North,Joseph
The Rustic Enclave,MBO,2007-10-09,327 Robinson Isle Suite 625 West Jeremyton  MT 45071,Lake Chloe,Utah,Suriname,South,Jeremy
The Dapper Closet,MBO,2011-09-25,27830 Ronald Causeway Apt. 728 Huynhfort  PR 13242,Port Tracyton,Georgia,Paraguay,East,Linda
The Harmony Elegance,SMB,2003-08-30,806 Mills Pike Suite 068 Monteschester  KS 59271,New Barbara,Michigan,British Virgin Islands,North,Adam
The Trendy Marketplace,MBO,2014-09-13,6047 Andrea Burgs South Kevin  WI 35497,Port Craig,Texas,Seychelles,South,Jeremy
The Purely Deals,Outlet Stores,2012-03-24,83181 Rachel Mill Jamesstad  NY 60539,West Geraldfurt,Ohio,Greenland,North,Kyle
The Timeless Oasis,Exclusive,1990-09-03,9266 Davenport Vista Apt. 927 Nicholsville  MO 55213,Brendaburgh,Oklahoma,El Salvador,North,David
The Classy Elegance,MBO,1980-03-31,32145 Frederick Freeway Jadebury  VI 34218,Nortonfurt,Kentucky,Uzbekistan,North,Timothy
The Chic Shop,MBO,2000-12-30,6929 Edwards Skyway Apt. 930 North Ronaldborough  TN 26490,West Mariachester,Mississippi,El Salvador,West,Michael
The Polished Shop,Outlet Stores,2003-08-02,40167 Erik Ridge Port Matthew  WI 11716,North Mary,Arizona,Georgia,South,Robert
The Chic Enclave,Outlet Stores,1995-01-21,978 Richards Mount Apt. 752 Lake Charlotteville  NE 82014,Nguyenbury,Idaho,Algeria,West,Aaron
The Artisan Emporium,MBO,1979-10-24,076 Christina Junctions Suite 817 South Laurenborough  VI 70082,Robertview,Rhode Island,Jersey,East,Seth
The Stylish Quest,MBO,1984-10-20,6618 Hall Lake Apt. 384 North Adamhaven  MA 78215,Lake Gregory,Ohio,India,West,Andrew
The Rustic Shoppe,Exclusive,2000-12-24,69375 Ayala Field Apt. 337 Taylormouth  WI 49297,Yvetteshire,Kentucky,American Samoa,North,Matthew
The Whimsy Deals,SMB,1991-12-25,2788 Gonzalez Plaza New Brian  PR 04867,Martinton,West Virginia,Argentina,West,John
The Cozy Shoppe,Outlet Stores,2000-07-22,3401 Diaz Port Donaldsonbury  AZ 66429,South Paul,Illinois,Congo,West,Kristie
The Golden Marketplace,SMB,2007-02-24,8778 James Estate Suite 804 Shawborough  CO 95122,New Deborah,Texas,Nepal,South,William
The Serene Sanctuary,MBO,2004-11-08,8258 Amanda Stravenue Apt. 333 Matthewside  TN 91349,Hollowayton,South Dakota,Antarctica (the territory South of 60 deg S),South,Christopher
The Cozy Deals,Exclusive,1987-11-29,9331 Davis Row Jamesmouth  NV 93853,New Jennifer,Arizona,Wallis and Futuna,South,Lindsey
The Happy Loft,SMB,1989-10-19,973 Christine Neck Suite 781 East Peter  ME 77685,Lake Lauramouth,Kansas,Lesotho,South,Melissa
The Urban Quest,Outlet Stores,1985-09-09,20939 Phillips Manor Apt. 756 West Catherinechester  GU 34172,Johnsonfort,Louisiana,Qatar,North,Kevin
The Eclectic Hub,SMB,1999-11-08,Unit 4130 Box 3718 DPO AP 09503,East Victoriaview,Iowa,Malawi,South,Linda
The Unique Marvels,MBO,2011-07-18,55258 Dean Canyon West Sherry  VA 78791,West Rachel,Colorado,Tajikistan,East,Lauren
The Cozy Cabinet,SMB,1986-07-06,934 Jeremy Lake Suite 838 North Kenneth  MD 63085,West Moniqueton,Connecticut,Antigua and Barbuda,North,James
The Trendy Treasures,MBO,2006-01-03,19734 Tracey Pines Lake Emilymouth  VI 38928,East Wesleystad,Delaware,Saint Helena,East,Edward
The Urban Essentials,SMB,2007-04-07,07207 Alan Branch Rojasshire  IL 21842,Jodyport,Tennessee,Egypt,South,Chad
The Classy Marvels,Outlet Stores,1990-04-10,78745 Stone Turnpike Suite 882 Lake Alexis  WI 71278,Biancaview,Oregon,Guam,East,Maria
The Cozy Nook,SMB,1985-10-03,732 David Turnpike Apt. 909 West Ryan  IN 92931,Port Ronaldton,Louisiana,Sao Tome and Principe,West,Heather
The Chic Sanctuary,SMB,1975-10-24,89644 Andrea Meadows Matthewshire  IL 34796,Andrewshaven,Florida,Central African Republic,West,Kenneth
The Blissful Emporium,Outlet Stores,1994-03-24,USNS Flores FPO AE 78770,North Noahstad,Ohio,Syrian Arab Republic,South,Ryan
The Polished Nook,MBO,2004-11-01,3446 Javier Plain Suite 489 Lake Markview  VA 33241,Port Lisaberg,Mississippi,Bosnia and Herzegovina,West,David
The Elegant Marketplace,MBO,2014-03-16,51879 Debra Way Apt. 779 Harriston  WA 76069,Port Diane,New York,French Guiana,North,Ashley
The Chic Essentials,Outlet Stores,1980-07-22,16709 Dillon Islands Apt. 263 North Alex  CO 01782,Johnstad,Alaska,Iraq,East,Mark
The Vintage Loft,SMB,2008-01-13,47236 Adam Stream Suite 972 Petertown  IA 23188,Robertmouth,Rhode Island,French Southern Territories,North,Bruce
The Luxe Marketplace,SMB,1988-08-14,2866 Berry Lights Adamfurt  MP 99901,Lake Randyhaven,New Hampshire,Aruba,South,Michelle
The Luxe Creations,Exclusive,2024-10-26,5900 Johnson Passage Burchmouth  VA 57673,Nataliestad,Louisiana,Dominican Republic,East,Trevor
The Luxe Loft,Exclusive,1997-05-16,166 Marie Dam South Derekfort  TN 14998,West Richard,Virginia,Andorra,East,Julie
The Cozy Oasis,Exclusive,1983-09-17,4700 Rita Mission West Susanborough  NC 36655,Greerborough,Oklahoma,Saint Martin,North,Patrick
The Golden Merchant,Outlet Stores,1993-11-16,0131 Branch Dale Lake James  MS 56694,Michellefort,Alabama,Morocco,East,Deborah
The Timeless Marketplace,Outlet Stores,1977-05-04,56498 Randall Loaf Lake Cindy  CA 04467,Port Andrewmouth,Hawaii,Vietnam,East,Lisa
The Cozy Marketplace,Exclusive,2002-02-15,801 Alexis Cove Jeffreymouth  WA 65610,Sonyashire,Louisiana,Mali,North,Patrick
The Whimsy Shop,SMB,1981-03-09,37867 Morgan Orchard New Karenburgh  MP 93243,Foxmouth,California,Costa Rica,North,Jesus
The Majestic Finds,Exclusive,1986-01-16,75669 Schmitt Meadow Apt. 558 Ramirezview  KS 21165,New Ellentown,Oklahoma,United States Virgin Islands,East,Shawn
The Eclectic Avenue,SMB,2022-01-02,05152 Kim Loaf Austinshire  MD 65812,North Joshua,Montana,Congo,South,Michael
The Rustic Oasis,Exclusive,2024-10-27,609 Young Ways Apt. 686 Halechester  MS 05847,East Sean,New Mexico,Mayotte,South,Samantha
The Stylish Treasures,Outlet Stores,2010-11-11,USS Chambers FPO AE 07511,Ericberg,Tennessee,Tanzania,North,Eric
The Timeless Hub,MBO,1984-10-12,22571 Joseph Roads Suite 916 East Shannon  SD 18332,Port Doris,Illinois,Paraguay,North,Lisa
The Elegant Nook,Exclusive,1987-08-03,84923 Douglas Port Suite 905 New Phillipborough  KY 71685,South Joseph,Ohio,Lesotho,North,Kelsey
The Radiant Shop,Exclusive,1972-09-30,29314 Boyd Knolls North Malloryhaven  MI 72212,East Phillipside,Iowa,Tuvalu,East,Jill
The Serene Deals,Exclusive,2009-10-22,8821 Nancy Forks South Claudia  MS 28054,Port Adam,Vermont,Greenland,East,Brandy
The Luxe Marketplace,MBO,2021-10-10,21229 David Orchard Jocelynville  CO 18509,South Melvin,Minnesota,Iraq,West,Nancy
The Unique Corner,Exclusive,2014-10-19,3917 Garrett Avenue Suite 620 Jasonmouth  GU 56442,North Taylor,Maryland,Palau,East,Paul
